ONEWEB-0555             
1 56057U 23043M   25273.29765541  .00000156  00000+0  37530-3 0  9995
2 56057  87.8970 280.5568 0002405  84.8002 275.3403 13.16592982124761
ONEWEB-0557             
1 56058U 23043N   25273.08391762  .00000068  00000+0  14516-3 0  9994
2 56058  87.8960 280.6161 0002457  59.2822 300.8551 13.16595390124735
ONEWEB-0558             
1 56059U 23043P   25272.51714731  .00000060  00000+0  11387-3 0  9992
2 56059  87.9176 296.0036 0001710 103.6014 256.5311 13.21825497123804
ONEWEB-0559             
1 56060U 23043Q   25273.03598513  .00000021  00000+0  20316-4 0  9990
2 56060  87.9178 295.8929 0001521  98.5684 261.5623 13.21825289123880
ONEWEB-0566             
1 56061U 23043R   25273.02967572  .00000060  00000+0  11447-3 0  9992
2 56061  87.9177 295.8918 0001701 101.4615 258.6710 13.21825355123862
ONEWEB-0568             
1 56062U 23043S   25272.94934014  .00000057  00000+0  11533-3 0  9990
2 56062  87.8972 280.6244 0002136  86.2082 273.9293 13.16595496124737
ONEWEB-0574             
1 56063U 23043T   25272.56918534  .00000085  00000+0  17468-3 0  9992
2 56063  87.9180 295.9722 0001826  86.9096 273.2247 13.21827096123840
ONEWEB-0575             
1 56064U 23043U   25273.09498598  .00000080  00000+0  17504-3 0  9991
2 56064  87.8965 280.5988 0002015  76.6317 283.5039 13.16596397124742
ONEWEB-0576             
1 56065U 23043V   25273.30398587  .00000123  00000+0  28795-3 0  9995
2 56065  87.8975 280.5535 0002061  87.2977 272.8389 13.16595235124764
ONEWEB-0577             
1 56066U 23043W   25273.08233893  .00000058  00000+0  11801-3 0  9996
2 56066  87.8973 280.5983 0002034  70.4643 289.6707 13.16595225124763
ONEWEB-0578             
1 56067U 23043X   25273.08643955  .00000078  00000+0  15748-3 0  9997
2 56067  87.9178 295.8785 0002124  90.2458 269.8920 13.21827400123872
ONEWEB-0579             
1 56068U 23043Y   25273.30407605  .00000057  00000+0  10683-3 0  9993
2 56068  87.9182 295.8221 0001647  95.9425 264.1896 13.21826021123911
ONEWEB-0581             
1 56069U 23043Z   25273.08866616  .00000054  00000+0  10865-3 0  9999
2 56069  87.8961 280.6149 0001694  77.1281 283.0039 13.16593004124737
ONEWEB-0609             
1 56070U 23043AA  25273.06768834 -.00000137  00000+0 -39853-3 0  9994
2 56070  87.9004 311.1282 0001870  98.0868 262.0475 13.15549834122230
ONEWEB-0613             
1 56071U 23043AB  25273.13899321 -.00000257  00000+0 -71564-3 0  9997
2 56071  87.9001 311.1279 0001643 102.5594 257.5720 13.15550303122245
ONEWEB-0630             
1 56072U 23043AC  25273.13423131 -.00000142  00000+0 -41130-3 0  9999
2 56072  87.9001 311.1015 0001686 103.4112 256.7206 13.15549751122231
ONEWEB-0632             
1 56073U 23043AD  25272.67314574 -.00000063  00000+0 -20077-3 0  9997
2 56073  87.8999 311.2131 0001738  90.8823 269.2506 13.15547321122179
ONEWEB-0633             
1 56074U 23043AE  25272.59073820 -.00000126  00000+0 -36836-3 0  9995
2 56074  87.9003 311.1932 0001853 116.7549 243.3772 13.15546226122144
ONEWEB-0634             
1 56075U 23043AF  25273.18494103 -.00000005  00000+0 -46870-4 0  9999
2 56075  87.9010 311.1192 0002094 101.7150 258.4216 13.15547220122214
ONEWEB-0635             
1 56076U 23043AG  25273.02809031  .00000100  00000+0  23168-3 0  9991
2 56076  87.8990 311.1103 0001711  84.9148 275.2178 13.15548072122228
ONEWEB-0636             
1 56077U 23043AH  25273.09619851  .00000125  00000+0  29759-3 0  9997
2 56077  87.8993 311.1144 0001744  88.7423 271.3908 13.15550376122218
ONEWEB-0637             
1 56078U 23043AJ  25273.08988679  .00000102  00000+0  23760-3 0  9995
2 56078  87.8997 311.1290 0002086  87.7067 272.4302 13.15549585122230
ONEWEB-0647             
1 56079U 23043AK  25273.16116536 -.00000096  00000+0 -28862-3 0  9992
2 56079  87.8998 311.1281 0001653  93.8380 266.2940 13.15548852122232
ONEWEB-0651             
1 56080U 23043AL  25272.62403736  .00000132  00000+0  31676-3 0  9991
2 56080  87.8999 311.2272 0001892  85.9587 274.1760 13.15548956123360
ONEWEB-0718             
1 56081U 23043AM  25273.07560951 -.00000028  00000+0 -10929-3 0  9999
2 56081  87.8999 311.1177 0002365 102.8120 257.3275 13.15549689122235
ONEWEB-0561             
1 56710U 23068A   25273.20047268  .00000000  00000+0 -31236-4 0  9995
2 56710  87.9242 326.2978 0001511  86.0151 274.1155 13.20772344115183
ONEWEB-0668             
1 56711U 23068B   25273.09105923  .00000098  00000+0  22334-3 0  9990
2 56711  87.8980 280.5900 0002368  91.2176 268.9227 13.16595178117552
ONEWEB-0676             
1 56712U 23068C   25273.29922654 -.00000389  00000+0 -10512-2 0  9990
2 56712  87.8972 280.5656 0001796  85.8635 274.2701 13.16592728117505
ONEWEB-0677             
1 56713U 23068D   25273.18940622  .00000012  00000+0 -14945-5 0  9993
2 56713  87.9244 326.2769 0001925  88.8095 271.3258 13.20768948115483
ONEWEB-0678             
1 56714U 23068E   25272.58757351 -.00000349  00000+0 -96096-3 0  9991
2 56714  87.9005 311.1888 0001592  99.1361 260.9950 13.15545913115027
ONEWEB-0679             
1 56715U 23068F   25273.26805934  .00025824  00000+0  67107-1 0  9991
2 56715  87.8956 280.5572 0002730  90.5782 269.5662 13.16816435117521
ONEWEB-0680             
1 56716U 23068G   25273.08013027  .00000098  00000+0  20573-3 0  9990
2 56716  87.9178 295.8652 0002543  90.4002 269.7424 13.21827123116735
ONEWEB-0681             
1 56717U 23068H   25273.13375652  .00000080  00000+0  16248-3 0  9997
2 56717  87.9180 295.8720 0001796  57.7596 302.3712 13.21825766116733
ONEWEB-0682             
1 56718U 23068J   25273.07006691 -.00000029  00000+0 -10981-3 0  9998
2 56718  87.8994 311.1115 0002375  92.5491 267.5912 13.15549277115254
ONEWEB-0683             
1 56719U 23068K   25273.16750683  .00000025  00000+0  33106-4 0  9995
2 56719  87.9001 311.0709 0002149  95.7485 264.3890 13.15550131115239
ONEWEB-0684             
1 56720U 23068L   25273.09937649  .00000213  00000+0  53226-3 0  9991
2 56720  87.8992 311.0816 0001630 142.1234 218.0011 13.15547384115058
ONEWEB-0686             
1 56721U 23068M   25273.03007875  .00000100  00000+0  22883-3 0  9995
2 56721  87.8961 280.6403 0002074  97.6196 262.5171 13.16593410117484
ONEWEB-0694             
1 56722U 23068N   25273.30082649  .00000182  00000+0  44143-3 0  9991
2 56722  87.8981 280.5192 0002327  89.2160 270.9237 13.16593721117571
ONEWEB-0696             
1 56723U 23068P   25273.13265739 -.00000068  00000+0 -21537-3 0  9993
2 56723  87.9001 311.1303 0001617 100.0828 260.0484 13.15548093115174
ONEWEB-0703             
1 56724U 23068Q   25273.14216412 -.00000086  00000+0 -26148-3 0  9992
2 56724  87.8993 311.1121 0000812  81.7527 278.3695 13.15547687115061
ONEWEB-0721             
1 56725U 23068R   25272.94593574 -.00000022  00000+0 -88498-4 0  9994
2 56725  86.6868 168.4933 0001688  73.7667 286.3652 13.22446438123546
ONEWEB-0015             
1 61594U 24188A   25272.83229036  .00000459  00000+0  12592-2 0  9997
2 61594  87.8795  72.9599 0001886  71.3911 288.7421 13.11414255 50337
ONEWEB-0687             
1 61595U 24188B   25273.14940792  .00000116  00000+0  26587-3 0  9992
2 61595  87.9063  57.6233 0002218  88.2010 271.9376 13.17647864 51658
ONEWEB-0688             
1 61596U 24188C   25272.87435196  .00000046  00000+0  84729-4 0  9994
2 61596  87.9063  57.6780 0002306  61.2411 298.8951 13.17647780 51610
ONEWEB-0689             
1 61597U 24188D   25273.17137292 -.00000705  00000+0 -20246-2 0  9991
2 61597  87.8765  72.8409 0001997  94.1217 266.0139 13.11416655 50376
ONEWEB-0690             
1 61598U 24188E   25272.87637803 -.00000078  00000+0 -25485-3 0  9995
2 61598  87.8811  72.8889 0000892  94.1623 265.9607 13.11418581 50519
ONEWEB-0691             
1 61599U 24188F   25272.87127654 -.00000243  00000+0 -72134-3 0  9991
2 61599  87.8731  72.8328 0001704  76.7392 283.3926 13.11417671 50361
ONEWEB-0692             
1 61600U 24188G   25273.19683062  .00000524  00000+0  14432-2 0  9996
2 61600  87.8785  72.8854 0002108 117.1523 242.9821 13.11418231 50393
ONEWEB-0693             
1 61601U 24188H   25272.88614686  .00000046  00000+0  86464-4 0  9993
2 61601  87.9063  57.6944 0000871  78.0779 282.0451 13.17650475 51601
ONEWEB-0695             
1 61602U 24188J   25272.86787767 -.00000494  00000+0 -14309-2 0  9999
2 61602  87.8788  72.9384 0002104 102.3289 257.8074 13.11417212 50346
ONEWEB-0697             
1 61603U 24188K   25273.20530340  .00000570  00000+0  15727-2 0  9990
2 61603  87.8786  72.8615 0001995 117.2070 242.9262 13.11416232 50379
ONEWEB-0698             
1 61604U 24188L   25272.87806580  .00000067  00000+0  15401-3 0  9996
2 61604  87.8790  72.9420 0001354 132.2340 227.8903 13.11417763 50358
ONEWEB-0699             
1 61605U 24188M   25272.53101533 -.00000322  00000+0 -96008-3 0  9994
2 61605  87.8755  88.2278 0001754 111.7684 248.3630 13.10375685 49176
ONEWEB-0700             
1 61606U 24188N   25272.53267562 -.00000176  00000+0 -53992-3 0  9992
2 61606  87.8747  88.1097 0002273 102.7030 257.4352 13.10376575 49168
ONEWEB-0701             
1 61607U 24188P   25273.23649692  .00000412  00000+0  11446-2 0  9997
2 61607  87.8744  88.0898 0001926 116.1321 244.0005 13.10376573 49266
ONEWEB-0702             
1 61608U 24188Q   25273.15274125 -.00000211  00000+0 -63120-3 0  9990
2 61608  87.8730  72.8049 0002225 113.6413 246.4948 13.11414764 50404
ONEWEB-0704             
1 61609U 24188R   25272.91943830 -.00000059  00000+0 -20609-3 0  9995
2 61609  87.8765  88.1079 0002287 110.0863 250.0510 13.10376908 49202
ONEWEB-0705             
1 61610U 24188S   25273.22985707  .00002756  00000+0  78562-2 0  9995
2 61610  87.8752  88.0764 0002888  92.9726 267.1732 13.10385320 41411
ONEWEB-0706             
1 61611U 24188T   25272.90947424 -.00000484  00000+0 -14234-2 0  9998
2 61611  87.8744  88.1675 0002198 101.2434 258.8940 13.10374725 49298
